start=new Date('2023-04-09T00:00:00.000Z').valueOf();
sats=[{"EPOCH":"2023-04-08T07:06:10.048032","GP_ID":"229733697","ECCENTRICITY":"0.00025470","RCS_SIZE":"LARGE","OBJECT_NAME":"STARLINK-5580","LAUNCH_DATE":"2023-03-03","EPHEMERIS_TYPE":"0","PERIOD":"92.851","SITE":"AFWTR","CLASSIFICATION_TYPE":"U","FILE":"3883527","SEMIMAJOR_AXIS":"6792.314","INCLINATION":"70.0013","MEAN_ELEMENT_THEORY":"SGP4","NORAD_CAT_ID":"55748","TLE_LINE2":"2 55748  70.0013  56.0476 0002547 273.0472  87.0422 15.50872500  6230","MEAN_ANOMALY":"87.0422","APOAPSIS":"415.909","ELEMENT_SET_NO":"999","BSTAR":"-0.00131760000000","RA_OF_ASC_NODE":"56.0476","OBJECT_TYPE":"PAYLOAD","OBJECT_ID":"2023-028H","REF_FRAME":"TEME","ARG_OF_PERICENTER":"273.0472","CENTER_NAME":"EARTH","COUNTRY_CODE":"US","REV_AT_EPOCH":"623","MEAN_MOTION_DOT":"-0.00075862","DECAY_DATE":null,"PERIAPSIS":"412.449","MEAN_MOTION_DDOT":"0.0000000000000","TLE_LINE1":"1 55748U 23028H   23098.29594963 -.00075862  00000-0 -13176-2 0  9993","MEAN_MOTION":"15.50872500","TIME_SYSTEM":"UTC"},{"TLE_LINE2":"2 55749  70.0008  55.1624 0005898 247.2575 112.7988 15.51006455  6286","MEAN_ANOMALY":"112.7988","ELEMENT_SET_NO":"999","BSTAR":"-0.00088964000000","APOAPSIS":"417.794","RA_OF_ASC_NODE":"55.1624","FILE":"3883696","CLASSIFICATION_TYPE":"U","SEMIMAJOR_AXIS":"6791.923","INCLINATION":"70.0008","MEAN_ELEMENT_THEORY":"SGP4","NORAD_CAT_ID":"55749","OBJECT_NAME":"STARLINK-5560","LAUNCH_DATE":"2023-03-03","PERIOD":"92.843","EPHEMERIS_TYPE":"0","SITE":"AFWTR","EPOCH":"2023-04-08T14:49:01.455744","RCS_SIZE":"LARGE","GP_ID":"229738356","ECCENTRICITY":"0.00058980","TLE_LINE1":"1 55749U 23028J   23098.61737796 -.00051710  00000-0 -88964-3 0  9997","TIME_SYSTEM":"UTC","MEAN_MOTION":"15.51006455","PERIAPSIS":"409.782","MEAN_MOTION_DDOT":"0.0000000000000","ARG_OF_PERICENTER":"247.2575","REV_AT_EPOCH":"628","COUNTRY_CODE":"US","CENTER_NAME":"EARTH","MEAN_MOTION_DOT":"-0.00051710","DECAY_DATE":null,"OBJECT_ID":"2023-028J","OBJECT_TYPE":"PAYLOAD","REF_FRAME":"TEME"},{"SEMIMAJOR_AXIS":"6792.010","INCLINATION":"70.0001","FILE":"3883527","CLASSIFICATION_TYPE":"U","NORAD_CAT_ID":"55750","MEAN_ELEMENT_THEORY":"SGP4","MEAN_ANOMALY":"80.8551","TLE_LINE2":"2 55750  70.0001  56.0439 0002414 279.2362  80.8551 15.50976688  6234","RA_OF_ASC_NODE":"56.0439","BSTAR":"-0.00093140000000","ELEMENT_SET_NO":"999","APOAPSIS":"415.515","EPOCH":"2023-04-08T07:05:44.909088","RCS_SIZE":"LARGE","GP_ID":"229732696","ECCENTRICITY":"0.00024140","PERIOD":"92.845","EPHEMERIS_TYPE":"0","LAUNCH_DATE":"2023-03-03","OBJECT_NAME":"STARLINK-5573","SITE":"AFWTR","PERIAPSIS":"412.236","MEAN_MOTION_DDOT":"0.0000000000000","TLE_LINE1":"1 55750U 23028K   23098.29565867 -.00054020  00000-0 -93140-3 0  9990","TIME_SYSTEM":"UTC","MEAN_MOTION":"15.50976688","OBJECT_ID":"2023-028K","OBJECT_TYPE":"PAYLOAD","REF_FRAME":"TEME","COUNTRY_CODE":"US","REV_AT_EPOCH":"623","CENTER_NAME":"EARTH","ARG_OF_PERICENTER":"279.2362","DECAY_DATE":null,"MEAN_MOTION_DOT":"-0.00054020"},{"MEAN_MOTION":"15.49429732","TIME_SYSTEM":"UTC","TLE_LINE1":"1 55751U 23028L   23098.58334491 -.00890673  00000-0 -17767-1 0  9991","MEAN_MOTION_DDOT":"0.0000000000000","PERIAPSIS":"416.082","MEAN_MOTION_DOT":"-0.00890673","DECAY_DATE":null,"ARG_OF_PERICENTER":"269.5629","CENTER_NAME":"EARTH","REV_AT_EPOCH":"627","COUNTRY_CODE":"US","REF_FRAME":"TEME","OBJECT_TYPE":"PAYLOAD","OBJECT_ID":"2023-028L","APOAPSIS":"420.708","BSTAR":"-0.01776700000000","ELEMENT_SET_NO":"999","RA_OF_ASC_NODE":"55.2673","TLE_LINE2":"2 55751  70.0019  55.2673 0003403 269.5629 250.6124 15.49429732  6270","MEAN_ANOMALY":"250.6124","NORAD_CAT_ID":"55751","MEAN_ELEMENT_THEORY":"SGP4","FILE":"3883256","CLASSIFICATION_TYPE":"U","INCLINATION":"70.0019","SEMIMAJOR_AXIS":"6796.530","SITE":"AFWTR","LAUNCH_DATE":"2023-03-03","OBJECT_NAME":"STARLINK-5577","EPHEMERIS_TYPE":"0","PERIOD":"92.937","GP_ID":"229700801","ECCENTRICITY":"0.00034030","RCS_SIZE":"LARGE","EPOCH":"2023-04-08T14:00:01.000224"},{"MEAN_MOTION_DOT":"0.00000669","DECAY_DATE":null,"ARG_OF_PERICENTER":"261.6141","CENTER_NAME":"EARTH","COUNTRY_CODE":"US","REV_AT_EPOCH":"624","REF_FRAME":"TEME","OBJECT_TYPE":"PAYLOAD","OBJECT_ID":"2023-028M","MEAN_MOTION":"15.51227919","TIME_SYSTEM":"UTC","TLE_LINE1":"1 55752U 23028M   23098.35840427  .00000669  00000-0  14196-4 0  9990","MEAN_MOTION_DDOT":"0.0000000000000","PERIAPSIS":"410.694","SITE":"AFWTR","OBJECT_NAME":"STARLINK-5613","LAUNCH_DATE":"2023-03-03","EPHEMERIS_TYPE":"0","PERIOD":"92.830","GP_ID":"229733198","ECCENTRICITY":"0.00036040","RCS_SIZE":"LARGE","EPOCH":"2023-04-08T08:36:06.128928","APOAPSIS":"415.589","ELEMENT_SET_NO":"999","BSTAR":"0.00001419600000","RA_OF_ASC_NODE":"55.8644","TLE_LINE2":"2 55752  69.9992  55.8644 0003604 261.6141  98.4636 15.51227919  6246","MEAN_ANOMALY":"98.4636","NORAD_CAT_ID":"55752","MEAN_ELEMENT_THEORY":"SGP4","FILE":"3883527","CLASSIFICATION_TYPE":"U","SEMIMAJOR_AXIS":"6791.277","INCLINATION":"69.9992"},{"SITE":"AFWTR","OBJECT_NAME":"STARLINK-5617","LAUNCH_DATE":"2023-03-03","EPHEMERIS_TYPE":"0","PERIOD":"92.866","ECCENTRICITY":"0.00032960","GP_ID":"229734957","RCS_SIZE":"LARGE","EPOCH":"2023-04-08T14:49:49.171008","APOAPSIS":"417.129","ELEMENT_SET_NO":"999","BSTAR":"-0.00407660000000","RA_OF_ASC_NODE":"55.1649","TLE_LINE2":"2 55753  70.0018  55.1649 0003296 296.5543  63.5305 15.50629022  6287","MEAN_ANOMALY":"63.5305","MEAN_ELEMENT_THEORY":"SGP4","NORAD_CAT_ID":"55753","CLASSIFICATION_TYPE":"U","FILE":"3883546","INCLINATION":"70.0018","SEMIMAJOR_AXIS":"6793.025","MEAN_MOTION_DOT":"-0.00227992","DECAY_DATE":null,"ARG_OF_PERICENTER":"296.5543","CENTER_NAME":"EARTH","REV_AT_EPOCH":"628","COUNTRY_CODE":"US","REF_FRAME":"TEME","OBJECT_ID":"2023-028N","OBJECT_TYPE":"PAYLOAD","MEAN_MOTION":"15.50629022","TIME_SYSTEM":"UTC","TLE_LINE1":"1 55753U 23028N   23098.61793022 -.00227992  00000-0 -40766-2 0  9990","MEAN_MOTION_DDOT":"0.0000000000000","PERIAPSIS":"412.651"},{"OBJECT_ID":"2023-028P","OBJECT_TYPE":"PAYLOAD","REF_FRAME":"TEME","ARG_OF_PERICENTER":"261.4397","REV_AT_EPOCH":"624","COUNTRY_CODE":"US","CENTER_NAME":"EARTH","MEAN_MOTION_DOT":"0.00000217","DECAY_DATE":null,"PERIAPSIS":"410.853","MEAN_MOTION_DDOT":"0.0000000000000","TLE_LINE1":"1 55754U 23028P   23098.35886616  .00000217  00000-0  64974-5 0  9991","TIME_SYSTEM":"UTC","MEAN_MOTION":"15.51222104","EPOCH":"2023-04-08T08:36:46.036224","RCS_SIZE":"LARGE","GP_ID":"229732197","ECCENTRICITY":"0.00033950","LAUNCH_DATE":"2023-03-03","OBJECT_NAME":"STARLINK-5612","PERIOD":"92.830","EPHEMERIS_TYPE":"0","SITE":"AFWTR","FILE":"3883527","CLASSIFICATION_TYPE":"U","INCLINATION":"69.9994","SEMIMAJOR_AXIS":"6791.294","NORAD_CAT_ID":"55754","MEAN_ELEMENT_THEORY":"SGP4","TLE_LINE2":"2 55754  69.9994  55.8669 0003395 261.4397  98.6405 15.51222104  6242","MEAN_ANOMALY":"98.6405","ELEMENT_SET_NO":"999","BSTAR":"0.00000649740000","APOAPSIS":"415.464","RA_OF_ASC_NODE":"55.8669"},{"OBJECT_ID":"2023-028Q","OBJECT_TYPE":"PAYLOAD","REF_FRAME":"TEME","ARG_OF_PERICENTER":"268.1552","CENTER_NAME":"EARTH","REV_AT_EPOCH":"633","COUNTRY_CODE":"US","MEAN_MOTION_DOT":"-0.00962911","DECAY_DATE":null,"PERIAPSIS":"418.226","MEAN_MOTION_DDOT":"0.0000000000000","TLE_LINE1":"1 55755U 23028Q   23098.91667824 -.00962911  00000-0 -19550-1 0  9998","MEAN_MOTION":"15.48706642","TIME_SYSTEM":"UTC","EPOCH":"2023-04-08T22:00:00.999936","GP_ID":"229734464","ECCENTRICITY":"0.00033600","RCS_SIZE":"LARGE","OBJECT_NAME":"STARLINK-5619","LAUNCH_DATE":"2023-03-03","EPHEMERIS_TYPE":"0","PERIOD":"92.981","SITE":"AFWTR","FILE":"3883546","CLASSIFICATION_TYPE":"U","SEMIMAJOR_AXIS":"6798.646","INCLINATION":"70.0020","MEAN_ELEMENT_THEORY":"SGP4","NORAD_CAT_ID":"55755","TLE_LINE2":"2 55755  70.0020  54.0941 0003360 268.1552 179.8959 15.48706642  6335","MEAN_ANOMALY":"179.8959","APOAPSIS":"422.795","BSTAR":"-0.01955000000000","ELEMENT_SET_NO":"999","RA_OF_ASC_NODE":"54.0941"},{"PERIAPSIS":"410.962","MEAN_MOTION_DDOT":"0.0000000000000","TLE_LINE1":"1 55756U 23028R   23098.35771856  .00001431  00000-0  27158-4 0  9993","TIME_SYSTEM":"UTC","MEAN_MOTION":"15.51227130","OBJECT_ID":"2023-028R","OBJECT_TYPE":"PAYLOAD","REF_FRAME":"TEME","ARG_OF_PERICENTER":"266.1062","REV_AT_EPOCH":"624","COUNTRY_CODE":"US","CENTER_NAME":"EARTH","MEAN_MOTION_DOT":"0.00001431","DECAY_DATE":null,"CLASSIFICATION_TYPE":"U","FILE":"3883527","INCLINATION":"70.0010","SEMIMAJOR_AXIS":"6791.279","NORAD_CAT_ID":"55756","MEAN_ELEMENT_THEORY":"SGP4","TLE_LINE2":"2 55756  70.0010  55.8624 0003213 266.1062  93.9757 15.51227130  6249","MEAN_ANOMALY":"93.9757","BSTAR":"0.00002715800000","ELEMENT_SET_NO":"999","APOAPSIS":"415.326","RA_OF_ASC_NODE":"55.8624","EPOCH":"2023-04-08T08:35:06.883584","RCS_SIZE":"LARGE","GP_ID":"229733698","ECCENTRICITY":"0.00032130","LAUNCH_DATE":"2023-03-03","OBJECT_NAME":"STARLINK-5614","PERIOD":"92.830","EPHEMERIS_TYPE":"0","SITE":"AFWTR"},{"MEAN_MOTION_DDOT":"0.0000000000000","PERIAPSIS":"410.937","TIME_SYSTEM":"UTC","MEAN_MOTION":"15.51224915","TLE_LINE1":"1 55757U 23028S   23098.35909267  .00000985  00000-0  19566-4 0  9990","REF_FRAME":"TEME","OBJECT_TYPE":"PAYLOAD","OBJECT_ID":"2023-028S","MEAN_MOTION_DOT":"0.00000985","DECAY_DATE":null,"ARG_OF_PERICENTER":"262.2531","COUNTRY_CODE":"US","REV_AT_EPOCH":"624","CENTER_NAME":"EARTH","NORAD_CAT_ID":"55757","MEAN_ELEMENT_THEORY":"SGP4","FILE":"3883527","CLASSIFICATION_TYPE":"U","SEMIMAJOR_AXIS":"6791.286","INCLINATION":"69.9997","ELEMENT_SET_NO":"999","BSTAR":"0.00001956600000","APOAPSIS":"415.365","RA_OF_ASC_NODE":"55.8678","TLE_LINE2":"2 55757  69.9997  55.8678 0003260 262.2531  97.8285 15.51224915  6247","MEAN_ANOMALY":"97.8285","RCS_SIZE":"LARGE","GP_ID":"229733445","ECCENTRICITY":"0.00032600","EPOCH":"2023-04-08T08:37:05.606688","SITE":"AFWTR","LAUNCH_DATE":"2023-03-03","OBJECT_NAME":"STARLINK-5544","PERIOD":"92.830","EPHEMERIS_TYPE":"0"}];
